{"fetched_at":"2026-07-08T17:59:23.476Z","source":"https://celestrak.org/NORAD/elements/gp.php?GROUP=kuiper&FORMAT=JSON","constellation":"kuiper","records":[{"OBJECT_NAME":"KUIPER-00080","OBJECT_ID":"2025-151M","EPOCH":"2026-07-07T06:05:56.715360","CLASSIFICATION_TYPE":"U","MEAN_MOTION":14.79918968,"ECCENTRICITY":0.00007874,"INCLINATION":51.8984,"RA_OF_ASC_NODE":131.8507,"ARG_OF_PERICENTER":99.2579,"MEAN_ANOMALY":260.8473,"EPHEMERIS_TYPE":0,"NORAD_CAT_ID":64827,"ELEMENT_SET_NO":999,"REV_AT_EPOCH":5301,"BSTAR":-0.00015427038,"MEAN_MOTION_DOT":-0.00001397,"MEAN_MOTION_DDOT":0},{"OBJECT_NAME":"KUIPER-00082","OBJECT_ID":"2025-151N","EPOCH":"2026-07-08T04:18:09.080064","CLASSIFICATION_TYPE":"U","MEAN_MOTION":14.79919915,"ECCENTRICITY":0.0000752,"INCLINATION":51.8985,"RA_OF_ASC_NODE":115.3093,"ARG_OF_PERICENTER":81.8596,"MEAN_ANOMALY":278.2451,"EPHEMERIS_TYPE":0,"NORAD_CAT_ID":64828,"ELEMENT_SET_NO":999,"REV_AT_EPOCH":5332,"BSTAR":0.000010469,"MEAN_MOTION_DOT":-0.00000141,"MEAN_MOTION_DDOT":0},{"OBJECT_NAME":"KUIPER-00083","OBJECT_ID":"2025-151P","EPOCH":"2026-07-08T12:12:43.468416","CLASSIFICATION_TYPE":"U","MEAN_MOTION":14.79926054,"ECCENTRICITY":0.0000932,"INCLINATION":51.8979,"RA_OF_ASC_NODE":121.34,"ARG_OF_PERICENTER":84.8522,"MEAN_ANOMALY":275.2546,"EPHEMERIS_TYPE":0,"NORAD_CAT_ID":64829,"ELEMENT_SET_NO":999,"REV_AT_EPOCH":5445,"BSTAR":0.00015824,"MEAN_MOTION_DOT":0.00000985,"MEAN_MOTION_DDOT":0},{"OBJECT_NAME":"KUIPER-00084","OBJECT_ID":"2025-151Q","EPOCH":"2026-07-07T06:46:47.701920","CLASSIFICATION_TYPE":"U","MEAN_MOTION":14.79934302,"ECCENTRICITY":0.00006419,"INCLINATION":51.9001,"RA_OF_ASC_NODE":136.7459,"ARG_OF_PERICENTER":79.7956,"MEAN_ANOMALY":280.3079,"EPHEMERIS_TYPE":0,"NORAD_CAT_ID":64830,"ELEMENT_SET_NO":999,"REV_AT_EPOCH":5294,"BSTAR":0.00038312484,"MEAN_MOTION_DOT":0.00002701,"MEAN_MOTION_DDOT":0},{"OBJECT_NAME":"KUIPER-00085","OBJECT_ID":"2025-151R","EPOCH":"2026-07-08T11:35:45.278880","CLASSIFICATION_TYPE":"U","MEAN_MOTION":14.79923743,"ECCENTRICITY":0.0000771,"INCLINATION":51.9016,"RA_OF_ASC_NODE":114.0138,"ARG_OF_PERICENTER":104.7026,"MEAN_ANOMALY":255.4021,"EPHEMERIS_TYPE":0,"NORAD_CAT_ID":64831,"ELEMENT_SET_NO":999,"REV_AT_EPOCH":5336,"BSTAR":0.000033587,"MEAN_MOTION_DOT":3.5e-7,"MEAN_MOTION_DDOT":0},{"OBJECT_NAME":"KUIPER-00086","OBJECT_ID":"2025-151S","EPOCH":"2026-07-08T04:51:14.812128","CLASSIFICATION_TYPE":"U","MEAN_MOTION":14.79924454,"ECCENTRICITY":0.0000774,"INCLINATION":51.9004,"RA_OF_ASC_NODE":125.2031,"ARG_OF_PERICENTER":93.9177,"MEAN_ANOMALY":266.1874,"EPHEMERIS_TYPE":0,"NORAD_CAT_ID":64832,"ELEMENT_SET_NO":999,"REV_AT_EPOCH":5318,"BSTAR":0.000036299,"MEAN_MOTION_DOT":5.6e-7,"MEAN_MOTION_DDOT":0},{"OBJECT_NAME":"KUIPER-00087","OBJECT_ID":"2025-151T","EPOCH":"2026-07-08T03:41:10.214880","CLASSIFICATION_TYPE":"U","MEAN_MOTION":14.79933221,"ECCENTRICITY":0.0000784,"INCLINATION":51.8995,"RA_OF_ASC_NODE":107.8827,"ARG_OF_PERICENTER":101.4911,"MEAN_ANOMALY":258.6139,"EPHEMERIS_TYPE":0,"NORAD_CAT_ID":64833,"ELEMENT_SET_NO":999,"REV_AT_EPOCH":5341,"BSTAR":0.0002183,"MEAN_MOTION_DOT":0.00001443,"MEAN_MOTION_DDOT":0},{"OBJECT_NAME":"KUIPER-00089","OBJECT_ID":"2025-151U","EPOCH":"2026-07-08T11:39:38.032704","CLASSIFICATION_TYPE":"U","MEAN_MOTION":14.79925731,"ECCENTRICITY":0.0000795,"INCLINATION":51.8986,"RA_OF_ASC_NODE":111.4337,"ARG_OF_PERICENTER":97.2909,"MEAN_ANOMALY":262.8144,"EPHEMERIS_TYPE":0,"NORAD_CAT_ID":64834,"ELEMENT_SET_NO":999,"REV_AT_EPOCH":5340,"BSTAR":0.00022582,"MEAN_MOTION_DOT":0.000015,"MEAN_MOTION_DDOT":0},{"OBJECT_NAME":"KUIPER-00090","OBJECT_ID":"2025-151V","EPOCH":"2026-07-08T11:51:17.093376","CLASSIFICATION_TYPE":"U","MEAN_MOTION":14.79924048,"ECCENTRICITY":0.0000614,"INCLINATION":51.8979,"RA_OF_ASC_NODE":103.9066,"ARG_OF_PERICENTER":109.8617,"MEAN_ANOMALY":250.2411,"EPHEMERIS_TYPE":0,"NORAD_CAT_ID":64835,"ELEMENT_SET_NO":999,"REV_AT_EPOCH":5350,"BSTAR":0.00037408,"MEAN_MOTION_DOT":0.00002631,"MEAN_MOTION_DDOT":0},{"OBJECT_NAME":"KUIPER-00091","OBJECT_ID":"2025-151W","EPOCH":"2026-07-08T11:43:30.434016","CLASSIFICATION_TYPE":"U","MEAN_MOTION":14.79922159,"ECCENTRICITY":0.000062,"INCLINATION":51.8989,"RA_OF_ASC_NODE":108.938,"ARG_OF_PERICENTER":104.5313,"MEAN_ANOMALY":255.5718,"EPHEMERIS_TYPE":0,"NORAD_CAT_ID":64836,"ELEMENT_SET_NO":999,"REV_AT_EPOCH":5343,"BSTAR":0.00011284,"MEAN_MOTION_DOT":0.00000639,"MEAN_MOTION_DDOT":0},{"OBJECT_NAME":"KUIPER-00092","OBJECT_ID":"2025-151X","EPOCH":"2026-07-08T05:02:53.268000","CLASSIFICATION_TYPE":"U","MEAN_MOTION":14.79927812,"ECCENTRICITY":0.0000749,"INCLINATION":51.9004,"RA_OF_ASC_NODE":117.6605,"ARG_OF_PERICENTER":94.277,"MEAN_ANOMALY":265.8278,"EPHEMERIS_TYPE":0,"NORAD_CAT_ID":64837,"ELEMENT_SET_NO":999,"REV_AT_EPOCH":5450,"BSTAR":0.000059389,"MEAN_MOTION_DOT":0.00000232,"MEAN_MOTION_DDOT":0},{"OBJECT_NAME":"KUIPER-00093","OBJECT_ID":"2025-151Y","EPOCH":"2026-07-08T04:59:00.438144","CLASSIFICATION_TYPE":"U","MEAN_MOTION":14.79921189,"ECCENTRICITY":0.0000817,"INCLINATION":51.8987,"RA_OF_ASC_NODE":120.1464,"ARG_OF_PERICENTER":84.2473,"MEAN_ANOMALY":275.8582,"EPHEMERIS_TYPE":0,"NORAD_CAT_ID":64838,"ELEMENT_SET_NO":999,"REV_AT_EPOCH":5325,"BSTAR":-0.000075657,"MEAN_MOTION_DOT":-0.00000798,"MEAN_MOTION_DDOT":0},{"OBJECT_NAME":"KUIPER-00094","OBJECT_ID":"2025-151Z","EPOCH":"2026-07-08T09:23:18.447936","CLASSIFICATION_TYPE":"U","MEAN_MOTION":14.79881998,"ECCENTRICITY":0.000091,"INCLINATION":51.9036,"RA_OF_ASC_NODE":74.4224,"ARG_OF_PERICENTER":91.5507,"MEAN_ANOMALY":268.556,"EPHEMERIS_TYPE":0,"NORAD_CAT_ID":64839,"ELEMENT_SET_NO":999,"REV_AT_EPOCH":5391,"BSTAR":0.0003392,"MEAN_MOTION_DOT":0.00002362,"MEAN_MOTION_DDOT":0},{"OBJECT_NAME":"KUIPER-00081","OBJECT_ID":"2025-171A","EPOCH":"2026-07-08T09:32:50.237088","CLASSIFICATION_TYPE":"U","MEAN_MOTION":14.79925207,"ECCENTRICITY":0.0000548,"INCLINATION":51.9014,"RA_OF_ASC_NODE":334.303,"ARG_OF_PERICENTER":103.5897,"MEAN_ANOMALY":256.5126,"EPHEMERIS_TYPE":0,"NORAD_CAT_ID":65132,"ELEMENT_SET_NO":999,"REV_AT_EPOCH":5091,"BSTAR":0.00032431,"MEAN_MOTION_DOT":0.00002252,"MEAN_MOTION_DDOT":0},{"OBJECT_NAME":"KUIPER-00088","OBJECT_ID":"2025-171B","EPOCH":"2026-07-07T16:53:13.262208","CLASSIFICATION_TYPE":"U","MEAN_MOTION":14.79920123,"ECCENTRICITY":0.0001414,"INCLINATION":51.8992,"RA_OF_ASC_NODE":354.8737,"ARG_OF_PERICENTER":112.9265,"MEAN_ANOMALY":247.1846,"EPHEMERIS_TYPE":0,"NORAD_CAT_ID":65133,"ELEMENT_SET_NO":999,"REV_AT_EPOCH":5056,"BSTAR":0.00005216,"MEAN_MOTION_DOT":0.00000176,"MEAN_MOTION_DDOT":0},{"OBJECT_NAME":"KUIPER-00095","OBJECT_ID":"2025-171C","EPOCH":"2026-07-08T09:36:43.727040","CLASSIFICATION_TYPE":"U","MEAN_MOTION":14.79925404,"ECCENTRICITY":0.0000522,"INCLINATION":51.8989,"RA_OF_ASC_NODE":331.8416,"ARG_OF_PERICENTER":101.7136,"MEAN_ANOMALY":258.3885,"EPHEMERIS_TYPE":0,"NORAD_CAT_ID":65134,"ELEMENT_SET_NO":999,"REV_AT_EPOCH":5094,"BSTAR":0.00033193,"MEAN_MOTION_DOT":0.0000231,"MEAN_MOTION_DDOT":0}]}
