KUIPER-00080            
1 64827U 25151M   26188.25412865 -.00001397  00000+0 -15427-3 0  9992
2 64827  51.8984 131.8507 0000787  99.2579 260.8473 14.79918968 53013
KUIPER-00082            
1 64828U 25151N   26189.17927176 -.00000141  00000+0  10469-4 0  9998
2 64828  51.8985 115.3093 0000752  81.8596 278.2451 14.79919915 53326
KUIPER-00083            
1 64829U 25151P   26189.50883644  .00000985  00000+0  15824-3 0  9991
2 64829  51.8979 121.3400 0000932  84.8522 275.2546 14.79926054 54450
KUIPER-00084            
1 64830U 25151Q   26188.28249655  .00002701  00000+0  38312-3 0  9990
2 64830  51.9001 136.7459 0000641  79.7956 280.3079 14.79934302 52949
KUIPER-00085            
1 64831U 25151R   26189.48316295  .00000035  00000+0  33587-4 0  9997
2 64831  51.9016 114.0138 0000771 104.7026 255.4021 14.79923743 53364
KUIPER-00086            
1 64832U 25151S   26189.20225477  .00000056  00000+0  36299-4 0  9995
2 64832  51.9004 125.2031 0000774  93.9177 266.1874 14.79924454 53182
KUIPER-00087            
1 64833U 25151T   26189.15359045  .00001443  00000+0  21830-3 0  9994
2 64833  51.8995 107.8827 0000784 101.4911 258.6139 14.79933221 53410
KUIPER-00089            
1 64834U 25151U   26189.48585686  .00001500  00000+0  22582-3 0  9992
2 64834  51.8986 111.4337 0000795  97.2909 262.8144 14.79925731 53408
KUIPER-00090            
1 64835U 25151V   26189.49394784  .00002631  00000+0  37408-3 0  9990
2 64835  51.8979 103.9066 0000614 109.8617 250.2411 14.79924048 53501
KUIPER-00091            
1 64836U 25151W   26189.48854669  .00000639  00000+0  11284-3 0  9993
2 64836  51.8989 108.9380 0000620 104.5313 255.5718 14.79922159 53430
KUIPER-00092            
1 64837U 25151X   26189.21033875  .00000232  00000+0  59389-4 0  9991
2 64837  51.9004 117.6605 0000749  94.2770 265.8278 14.79927812 54506
KUIPER-00093            
1 64838U 25151Y   26189.20764396 -.00000798  00000+0 -75657-4 0  9995
2 64838  51.8987 120.1464 0000817  84.2473 275.8582 14.79921189 53254
KUIPER-00094            
1 64839U 25151Z   26189.39118574  .00002362  00000+0  33920-3 0  9990
2 64839  51.9036  74.4224 0000910  91.5507 268.5560 14.79881998 53910
KUIPER-00081            
1 65132U 25171A   26189.39780367  .00002252  00000+0  32431-3 0  9998
2 65132  51.9014 334.3030 0000548 103.5897 256.5126 14.79925207 50913
KUIPER-00088            
1 65133U 25171B   26188.70362572  .00000176  00000+0  52160-4 0  9992
2 65133  51.8992 354.8737 0001414 112.9265 247.1846 14.79920123 50563
KUIPER-00095            
1 65134U 25171C   26189.40050610  .00002310  00000+0  33193-3 0  9994
2 65134  51.8989 331.8416 0000522 101.7136 258.3885 14.79925404 50947
